0 NTS 1 AKM
1 08599U 74054C   13281.49277690  .00000068  00000-0  00000+0 0  3683
2 08599 124.8709 111.5383 0071172 160.4995 199.8119 03.07181558243092
0 NTS 1 AKM
1 08599U 74054C   13287.67771190  .00000079  00000-0  00000+0 0  3696
2 08599 124.8685 112.1927 0071631 160.6406 199.6631 03.07181438243280
0 NTS 1 AKM
1 08599U 74054C   13292.32536641  .00000036  00000-0  00000+0 0  3709
2 08599 124.8666 112.6855 0070244 160.6245 299.5746 03.07181977243436
